{"type": "FeatureCollection", "features": [ {"type": "Feature", "properties": {"norad_id": 34790, "name": "COSMOS 2251 DEB", "group": "cosmos-2251-debris", "lat": 70.87903154172801, "lon": -0.3380961406777379, "alt_km": 872.2753170210053, "timestamp": "2025-12-17T10:52:54.747489+00:00", "meta": {"OBJECT_NAME": "COSMOS 2251 DEB", "OBJECT_ID": "1993-036AAT", "EPOCH": "2025-12-16T03:06:00.756288", "MEAN_MOTION": 14.24647069, "ECCENTRICITY": 0.0100683, "INCLINATION": 74.0536, "RA_OF_ASC_NODE": 237.6034, "ARG_OF_PERICENTER": 298.5207, "MEAN_ANOMALY": 212.8818, "EPHEMERIS_TYPE": 0, "CLASSIFICATION_TYPE": "U", "NORAD_CAT_ID": 34790, "ELEMENT_SET_NO": 999, "REV_AT_EPOCH": 86621, "BSTAR": 0.00059061008, "MEAN_MOTION_DOT": 1.421e-05, "MEAN_MOTION_DDOT": 0}, "tle": {"line1": "1 34790U 93036AAT 25350.12917542  .00001421  00000+0  59061-3 0  9991", "line2": "2 34790  74.0536 237.6034 0100683 298.5207 212.8818 14.24647069866212"}}, "geometry": {"type": "Point", "coordinates": [-0.3380961406777379, 70.87903154172801]}}, {"type": "Feature", "properties": {"norad_id": 34792, "name": "COSMOS 2251 DEB", "group": "cosmos-2251-debris", "lat": -37.98839032342943, "lon": -6.302903635888613, "alt_km": 704.9739340839833, "timestamp": "2025-12-17T10:52:54.747499+00:00", "meta": {"OBJECT_NAME": "COSMOS 2251 DEB", "OBJECT_ID": "1993-036AAV", "EPOCH": "2025-12-16T12:41:46.558176", "MEAN_MOTION": 14.55986871, "ECCENTRICITY": 0.00124746, "INCLINATION": 74.0172, "RA_OF_ASC_NODE": 162.5169, "ARG_OF_PERICENTER": 256.8164, "MEAN_ANOMALY": 159.6626, "EPHEMERIS_TYPE": 0, "CLASSIFICATION_TYPE": "U", "NORAD_CAT_ID": 34792, "ELEMENT_SET_NO": 999, "REV_AT_EPOCH": 87705, "BSTAR": 0.00072892575, "MEAN_MOTION_DOT": 3.182e-05, "MEAN_MOTION_DDOT": 0}, "tle": {"line1": "1 34792U 93036AAV 25350.52901109  .00003182  00000+0  72893-3 0  9993", "line2": "2 34792  74.0172 162.5169 0012474 256.8164 159.6626 14.55986871877054"}}, "geometry": {"type": "Point", "coordinates": [-6.302903635888613, -37.98839032342943]}}, {"type": "Feature", "properties": {"norad_id": 34793, "name": "COSMOS 2251 DEB", "group": "cosmos-2251-debris", "lat": 60.53543635565883, "lon": -87.82332219969611, "alt_km": 725.5799516679117, "timestamp": "2025-12-17T10:52:54.747509+00:00", "meta": {"OBJECT_NAME": "COSMOS 2251 DEB", "OBJECT_ID": "1993-036AAW", "EPOCH": "2025-12-16T22:58:26.077728", "MEAN_MOTION": 14.38651689, "ECCENTRICITY": 0.00504774, "INCLINATION": 74.0024, "RA_OF_ASC_NODE": 242.5755, "ARG_OF_PERICENTER": 35.6003, "MEAN_ANOMALY": 340.4021, "EPHEMERIS_TYPE": 0, "CLASSIFICATION_TYPE": "U", "NORAD_CAT_ID": 34793, "ELEMENT_SET_NO": 999, "REV_AT_EPOCH": 87391, "BSTAR": 0.0002200452, "MEAN_MOTION_DOT": 6.58e-06, "MEAN_MOTION_DDOT": 0}, "tle": {"line1": "1 34793U 93036AAW 25350.95724627  .00000658  00000+0  22005-3 0  9994", "line2": "2 34793  74.0024 242.5755 0050477  35.6003 340.4021 14.38651689873918"}}, "geometry": {"type": "Point", "coordinates": [-87.82332219969611, 60.53543635565883]}}, {"type": "Feature", "properties": {"norad_id": 34796, "name": "COSMOS 2251 DEB", "group": "cosmos-2251-debris", "lat": -29.250677549766216, "lon": -161.72082233123552, "alt_km": 668.7901256052864, "timestamp": "2025-12-17T10:52:54.747519+00:00", "meta": {"OBJECT_NAME": "COSMOS 2251 DEB", "OBJECT_ID": "1993-036AAZ", "EPOCH": "2025-12-15T20:57:59.815872", "MEAN_MOTION": 14.48706583, "ECCENTRICITY": 0.01002779, "INCLINATION": 74.0299, "RA_OF_ASC_NODE": 210.4689, "ARG_OF_PERICENTER": 311.8419, "MEAN_ANOMALY": 61.4285, "EPHEMERIS_TYPE": 0, "CLASSIFICATION_TYPE": "U", "NORAD_CAT_ID": 34796, "ELEMENT_SET_NO": 999, "REV_AT_EPOCH": 88073, "BSTAR": 0.00041688974, "MEAN_MOTION_DOT": 1.644e-05, "MEAN_MOTION_DDOT": 0}, "tle": {"line1": "1 34796U 93036AAZ 25349.87360898  .00001644  00000+0  41689-3 0  9997", "line2": "2 34796  74.0299 210.4689 0100277 311.8419  61.4285 14.48706583880734"}}, "geometry": {"type": "Point", "coordinates": [-161.72082233123552, -29.250677549766216]}}, {"type": "Feature", "properties": {"norad_id": 34797, "name": "COSMOS 2251 DEB", "group": "cosmos-2251-debris", "lat": -6.130747242031805, "lon": 89.43275583065441, "alt_km": 796.3561810191568, "timestamp": "2025-12-17T10:52:54.747529+00:00", "meta": {"OBJECT_NAME": "COSMOS 2251 DEB", "OBJECT_ID": "1993-036ABA", "EPOCH": "2025-12-16T14:56:37.002336", "MEAN_MOTION": 14.42882517, "ECCENTRICITY": 0.00715784, "INCLINATION": 73.9768, "RA_OF_ASC_NODE": 92.7489, "ARG_OF_PERICENTER": 205.6327, "MEAN_ANOMALY": 154.1276, "EPHEMERIS_TYPE": 0, "CLASSIFICATION_TYPE": "U", "NORAD_CAT_ID": 34797, "ELEMENT_SET_NO": 999, "REV_AT_EPOCH": 87471, "BSTAR": 0.0017768678, "MEAN_MOTION_DOT": 6.099e-05, "MEAN_MOTION_DDOT": 0}, "tle": {"line1": "1 34797U 93036ABA 25350.62265049  .00006099  00000+0  17769-2 0  9995", "line2": "2 34797  73.9768  92.7489 0071578 205.6327 154.1276 14.42882517874719"}}, "geometry": {"type": "Point", "coordinates": [89.43275583065441, -6.130747242031805]}}, {"type": "Feature", "properties": {"norad_id": 34814, "name": "COSMOS 2251 DEB", "group": "cosmos-2251-debris", "lat": -52.90531559597201, "lon": 159.16026120762064, "alt_km": 740.8705081440003, "timestamp": "2025-12-17T10:52:54.747539+00:00", "meta": {"OBJECT_NAME": "COSMOS 2251 DEB", "OBJECT_ID": "1993-036ABD", "EPOCH": "2025-12-15T06:16:46.279200", "MEAN_MOTION": 14.36906963, "ECCENTRICITY": 0.00560142, "INCLINATION": 73.8956, "RA_OF_ASC_NODE": 320.7607, "ARG_OF_PERICENTER": 209.789, "MEAN_ANOMALY": 212.7208, "EPHEMERIS_TYPE": 0, "CLASSIFICATION_TYPE": "U", "NORAD_CAT_ID": 34814, "ELEMENT_SET_NO": 999, "REV_AT_EPOCH": 87369, "BSTAR": 0.00061236247, "MEAN_MOTION_DOT": 1.818e-05, "MEAN_MOTION_DDOT": 0}, "tle": {"line1": "1 34814U 93036ABD 25349.26164675  .00001818  00000+0  61236-3 0  9999", "line2": "2 34814  73.8956 320.7607 0056014 209.7890 212.7208 14.36906963873698"}}, "geometry": {"type": "Point", "coordinates": [159.16026120762064, -52.90531559597201]}}, {"type": "Feature", "properties": {"norad_id": 34815, "name": "COSMOS 2251 DEB", "group": "cosmos-2251-debris", "lat": 13.53325497141354, "lon": -123.50639474618247, "alt_km": 623.3446109730958, "timestamp": "2025-12-17T10:52:54.747549+00:00", "meta": {"OBJECT_NAME": "COSMOS 2251 DEB", "OBJECT_ID": "1993-036ABE", "EPOCH": "2025-12-16T23:27:00.109440", "MEAN_MOTION": 14.78364553, "ECCENTRICITY": 0.00588472, "INCLINATION": 74.0451, "RA_OF_ASC_NODE": 233.4801, "ARG_OF_PERICENTER": 301.655, "MEAN_ANOMALY": 57.8893, "EPHEMERIS_TYPE": 0, "CLASSIFICATION_TYPE": "U", "NORAD_CAT_ID": 34815, "ELEMENT_SET_NO": 999, "REV_AT_EPOCH": 88690, "BSTAR": 0.00060673515, "MEAN_MOTION_DOT": 4.512e-05, "MEAN_MOTION_DDOT": 0}, "tle": {"line1": "1 34815U 93036ABE 25350.97708460  .00004512  00000+0  60674-3 0  9995", "line2": "2 34815  74.0451 233.4801 0058847 301.6550  57.8893 14.78364553886904"}}, "geometry": {"type": "Point", "coordinates": [-123.50639474618247, 13.53325497141354]}}, {"type": "Feature", "properties": {"norad_id": 34816, "name": "COSMOS 2251 DEB", "group": "cosmos-2251-debris", "lat": 73.50172564306756, "lon": -147.13992199802968, "alt_km": 1131.9604045851738, "timestamp": "2025-12-17T10:52:54.747560+00:00", "meta": {"OBJECT_NAME": "COSMOS 2251 DEB", "OBJECT_ID": "1993-036ABF", "EPOCH": "2025-12-15T18:06:42.079680", "MEAN_MOTION": 13.58332319, "ECCENTRICITY": 0.03733711, "INCLINATION": 73.8856, "RA_OF_ASC_NODE": 138.2013, "ARG_OF_PERICENTER": 202.1531, "MEAN_ANOMALY": 224.4448, "EPHEMERIS_TYPE": 0, "CLASSIFICATION_TYPE": "U", "NORAD_CAT_ID": 34816, "ELEMENT_SET_NO": 999, "REV_AT_EPOCH": 82824, "BSTAR": 0.0011149526, "MEAN_MOTION_DOT": 1.255e-05, "MEAN_MOTION_DDOT": 0}, "tle": {"line1": "1 34816U 93036ABF 25349.75465370  .00001255  00000+0  11150-2 0  9995", "line2": "2 34816  73.8856 138.2013 0373371 202.1531 224.4448 13.58332319828247"}}, "geometry": {"type": "Point", "coordinates": [-147.13992199802968, 73.50172564306756]}}, {"type": "Feature", "properties": {"norad_id": 34818, "name": "COSMOS 2251 DEB", "group": "cosmos-2251-debris", "lat": -49.24317836196937, "lon": -91.12492080346057, "alt_km": 764.9650553157262, "timestamp": "2025-12-17T10:52:54.747570+00:00", "meta": {"OBJECT_NAME": "COSMOS 2251 DEB", "OBJECT_ID": "1993-036ABH", "EPOCH": "2025-12-16T07:26:50.142048", "MEAN_MOTION": 14.3697169, "ECCENTRICITY": 0.00243056, "INCLINATION": 74.0362, "RA_OF_ASC_NODE": 290.3739, "ARG_OF_PERICENTER": 5.1622, "MEAN_ANOMALY": 152.1141, "EPHEMERIS_TYPE": 0, "CLASSIFICATION_TYPE": "U", "NORAD_CAT_ID": 34818, "ELEMENT_SET_NO": 999, "REV_AT_EPOCH": 87421, "BSTAR": 0.00020479169, "MEAN_MOTION_DOT": 5.82e-06, "MEAN_MOTION_DDOT": 0}, "tle": {"line1": "1 34818U 93036ABH 25350.31030257  .00000582  00000+0  20479-3 0  9990", "line2": "2 34818  74.0362 290.3739 0024305   5.1622 152.1141 14.36971690874214"}}, "geometry": {"type": "Point", "coordinates": [-91.12492080346057, -49.24317836196937]}}, {"type": "Feature", "properties": {"norad_id": 34819, "name": "COSMOS 2251 DEB", "group": "cosmos-2251-debris", "lat": -33.83443222275702, "lon": 122.52090656085699, "alt_km": 687.3716282594942, "timestamp": "2025-12-17T10:52:54.747581+00:00", "meta": {"OBJECT_NAME": "COSMOS 2251 DEB", "OBJECT_ID": "1993-036ABJ", "EPOCH": "2025-12-16T02:47:00.153600", "MEAN_MOTION": 14.64020669, "ECCENTRICITY": 0.00156426, "INCLINATION": 74.0171, "RA_OF_ASC_NODE": 136.1678, "ARG_OF_PERICENTER": 230.4612, "MEAN_ANOMALY": 248.0037, "EPHEMERIS_TYPE": 0, "CLASSIFICATION_TYPE": "U", "NORAD_CAT_ID": 34819, "ELEMENT_SET_NO": 999, "REV_AT_EPOCH": 88278, "BSTAR": 0.0011169462, "MEAN_MOTION_DOT": 5.841e-05, "MEAN_MOTION_DDOT": 0}, "tle": {"line1": "1 34819U 93036ABJ 25350.11597400  .00005841  00000+0  11169-2 0  9995", "line2": "2 34819  74.0171 136.1678 0015642 230.4612 248.0037 14.64020669882780"}}, "geometry": {"type": "Point", "coordinates": [122.52090656085699, -33.83443222275702]}}]}